{"type": "FeatureCollection", "features": [{"type": "Feature", "properties": {"norad_id": 28890, "name": "BEIJING 1", "group": "dmc", "lat": 71.19125042177026, "lon": 84.090347925166, "alt_km": 674.1505984576024, "timestamp": "2025-12-07T20:38:13.744029+00:00", "meta": {"OBJECT_NAME": "BEIJING 1", "OBJECT_ID": "2005-043A", "EPOCH": "2025-12-07T07:10:32.844000", "MEAN_MOTION": 14.63358455, "ECCENTRICITY": 0.00150769, "INCLINATION": 98.2657, "RA_OF_ASC_NODE": 108.7933, "ARG_OF_PERICENTER": 157.839, "MEAN_ANOMALY": 202.3467, "EPHEMERIS_TYPE": 0, "CLASSIFICATION_TYPE": "U", "NORAD_CAT_ID": 28890, "ELEMENT_SET_NO": 999, "REV_AT_EPOCH": 7258, "BSTAR": 0.00016966698, "MEAN_MOTION_DOT": 8.29e-06, "MEAN_MOTION_DDOT": 0}, "tle": {"line1": "1 28890U 05043A   25341.29899125  .00000829  00000+0  16967-3 0  9999", "line2": "2 28890  98.2657 108.7933 0015076 157.8390 202.3467 14.63358455 72589"}}, "geometry": {"type": "Point", "coordinates": [84.090347925166, 71.19125042177026]}}, {"type": "Feature", "properties": {"norad_id": 33320, "name": "HUANJING 1A (HJ-1A)", "group": "dmc", "lat": 68.71382901036047, "lon": 170.55311308518318, "alt_km": 604.8821785507189, "timestamp": "2025-12-07T20:38:13.744052+00:00", "meta": {"OBJECT_NAME": "HUANJING 1A (HJ-1A)", "OBJECT_ID": "2008-041A", "EPOCH": "2025-12-07T07:11:37.778784", "MEAN_MOTION": 14.83368551, "ECCENTRICITY": 0.00204787, "INCLINATION": 97.6537, "RA_OF_ASC_NODE": 329.8253, "ARG_OF_PERICENTER": 51.5636, "MEAN_ANOMALY": 308.7412, "EPHEMERIS_TYPE": 0, "CLASSIFICATION_TYPE": "U", "NORAD_CAT_ID": 33320, "ELEMENT_SET_NO": 999, "REV_AT_EPOCH": 92995, "BSTAR": 0.00034793522, "MEAN_MOTION_DOT": 2.812e-05, "MEAN_MOTION_DDOT": 0}, "tle": {"line1": "1 33320U 08041A   25341.29974281  .00002812  00000+0  34794-3 0  9993", "line2": "2 33320  97.6537 329.8253 0020478  51.5636 308.7412 14.83368551929952"}}, "geometry": {"type": "Point", "coordinates": [170.55311308518318, 68.71382901036047]}}, {"type": "Feature", "properties": {"norad_id": 33321, "name": "HUANJING 1B (HJ-1B)", "group": "dmc", "lat": -19.53832865831435, "lon": -23.198178911997285, "alt_km": 635.0870984367493, "timestamp": "2025-12-07T20:38:13.744066+00:00", "meta": {"OBJECT_NAME": "HUANJING 1B (HJ-1B)", "OBJECT_ID": "2008-041B", "EPOCH": "2025-12-07T06:09:00.096768", "MEAN_MOTION": 14.82799882, "ECCENTRICITY": 0.00382502, "INCLINATION": 97.6395, "RA_OF_ASC_NODE": 333.4949, "ARG_OF_PERICENTER": 93.1614, "MEAN_ANOMALY": 267.3977, "EPHEMERIS_TYPE": 0, "CLASSIFICATION_TYPE": "U", "NORAD_CAT_ID": 33321, "ELEMENT_SET_NO": 999, "REV_AT_EPOCH": 92996, "BSTAR": 0.00028937528, "MEAN_MOTION_DOT": 2.319e-05, "MEAN_MOTION_DDOT": 0}, "tle": {"line1": "1 33321U 08041B   25341.25625112  .00002319  00000+0  28938-3 0  9991", "line2": "2 33321  97.6395 333.4949 0038250  93.1614 267.3977 14.82799882929964"}}, "geometry": {"type": "Point", "coordinates": [-23.198178911997285, -19.53832865831435]}}, {"type": "Feature", "properties": {"norad_id": 33446, "name": "YAOGAN-4", "group": "dmc", "lat": -72.77863096628037, "lon": 65.32807496181806, "alt_km": 627.4373855219101, "timestamp": "2025-12-07T20:38:13.744078+00:00", "meta": {"OBJECT_NAME": "YAOGAN-4", "OBJECT_ID": "2008-061A", "EPOCH": "2025-12-07T06:32:00.675456", "MEAN_MOTION": 14.82655941, "ECCENTRICITY": 0.00140606, "INCLINATION": 97.9176, "RA_OF_ASC_NODE": 271.4251, "ARG_OF_PERICENTER": 341.8774, "MEAN_ANOMALY": 18.1937, "EPHEMERIS_TYPE": 0, "CLASSIFICATION_TYPE": "U", "NORAD_CAT_ID": 33446, "ELEMENT_SET_NO": 999, "REV_AT_EPOCH": 91722, "BSTAR": 0.0003352026, "MEAN_MOTION_DOT": 2.652e-05, "MEAN_MOTION_DDOT": 0}, "tle": {"line1": "1 33446U 08061A   25341.27223004  .00002652  00000+0  33520-3 0  9990", "line2": "2 33446  97.9176 271.4251 0014060 341.8774  18.1937 14.82655941917223"}}, "geometry": {"type": "Point", "coordinates": [65.32807496181806, -72.77863096628037]}}, {"type": "Feature", "properties": {"norad_id": 35681, "name": "DEIMOS-1", "group": "dmc", "lat": 19.489771113793395, "lon": -34.55927781293635, "alt_km": 644.9103582860253, "timestamp": "2025-12-07T20:38:13.744089+00:00", "meta": {"OBJECT_NAME": "DEIMOS-1", "OBJECT_ID": "2009-041A", "EPOCH": "2025-12-07T06:53:16.658304", "MEAN_MOTION": 14.74940019, "ECCENTRICITY": 0.00026955, "INCLINATION": 97.7153, "RA_OF_ASC_NODE": 142.1446, "ARG_OF_PERICENTER": 90.5898, "MEAN_ANOMALY": 269.5621, "EPHEMERIS_TYPE": 0, "CLASSIFICATION_TYPE": "U", "NORAD_CAT_ID": 35681, "ELEMENT_SET_NO": 999, "REV_AT_EPOCH": 87859, "BSTAR": 0.00020617173, "MEAN_MOTION_DOT": 1.338e-05, "MEAN_MOTION_DDOT": 0}, "tle": {"line1": "1 35681U 09041A   25341.28699836  .00001338  00000+0  20617-3 0  9996", "line2": "2 35681  97.7153 142.1446 0002695  90.5898 269.5621 14.74940019878597"}}, "geometry": {"type": "Point", "coordinates": [-34.55927781293635, 19.489771113793395]}}, {"type": "Feature", "properties": {"norad_id": 35683, "name": "UK-DMC 2", "group": "dmc", "lat": 16.21727192489679, "lon": -60.79775932267268, "alt_km": 643.4939819009296, "timestamp": "2025-12-07T20:38:13.744100+00:00", "meta": {"OBJECT_NAME": "UK-DMC 2", "OBJECT_ID": "2009-041C", "EPOCH": "2025-12-07T06:52:44.852736", "MEAN_MOTION": 14.75603696, "ECCENTRICITY": 0.00013429, "INCLINATION": 97.8564, "RA_OF_ASC_NODE": 116.3437, "ARG_OF_PERICENTER": 101.6478, "MEAN_ANOMALY": 258.4882, "EPHEMERIS_TYPE": 0, "CLASSIFICATION_TYPE": "U", "NORAD_CAT_ID": 35683, "ELEMENT_SET_NO": 999, "REV_AT_EPOCH": 87826, "BSTAR": 0.00029255839, "MEAN_MOTION_DOT": 1.947e-05, "MEAN_MOTION_DDOT": 0}, "tle": {"line1": "1 35683U 09041C   25341.28663024  .00001947  00000+0  29256-3 0  9992", "line2": "2 35683  97.8564 116.3437 0001342 101.6478 258.4882 14.75603696878263"}}, "geometry": {"type": "Point", "coordinates": [-60.79775932267268, 16.21727192489679]}}, {"type": "Feature", "properties": {"norad_id": 40715, "name": "DMC3-FM1", "group": "dmc", "lat": 39.80740147956493, "lon": -157.21876192734226, "alt_km": 607.504896819235, "timestamp": "2025-12-07T20:38:13.744110+00:00", "meta": {"OBJECT_NAME": "DMC3-FM1", "OBJECT_ID": "2015-032A", "EPOCH": "2025-12-07T05:54:23.429664", "MEAN_MOTION": 14.85425996, "ECCENTRICITY": 0.00050066, "INCLINATION": 97.6703, "RA_OF_ASC_NODE": 208.6387, "ARG_OF_PERICENTER": 341.2963, "MEAN_ANOMALY": 18.8068, "EPHEMERIS_TYPE": 0, "CLASSIFICATION_TYPE": "U", "NORAD_CAT_ID": 40715, "ELEMENT_SET_NO": 999, "REV_AT_EPOCH": 56141, "BSTAR": 0.00017855103, "MEAN_MOTION_DOT": 1.487e-05, "MEAN_MOTION_DDOT": 0}, "tle": {"line1": "1 40715U 15032A   25341.24610451  .00001487  00000+0  17855-3 0  9994", "line2": "2 40715  97.6703 208.6387 0005006 341.2963  18.8068 14.85425996561415"}}, "geometry": {"type": "Point", "coordinates": [-157.21876192734226, 39.80740147956493]}}, {"type": "Feature", "properties": {"norad_id": 40716, "name": "DMC3-FM2", "group": "dmc", "lat": -77.45960282001319, "lon": -112.00464725596247, "alt_km": 617.8349894113644, "timestamp": "2025-12-07T20:38:13.744121+00:00", "meta": {"OBJECT_NAME": "DMC3-FM2", "OBJECT_ID": "2015-032B", "EPOCH": "2025-12-07T06:26:47.638752", "MEAN_MOTION": 14.85427368, "ECCENTRICITY": 0.00056421, "INCLINATION": 97.676, "RA_OF_ASC_NODE": 210.1003, "ARG_OF_PERICENTER": 345.6248, "MEAN_ANOMALY": 14.4806, "EPHEMERIS_TYPE": 0, "CLASSIFICATION_TYPE": "U", "NORAD_CAT_ID": 40716, "ELEMENT_SET_NO": 999, "REV_AT_EPOCH": 56141, "BSTAR": 0.00018150328, "MEAN_MOTION_DOT": 1.513e-05, "MEAN_MOTION_DDOT": 0}, "tle": {"line1": "1 40716U 15032B   25341.26860693  .00001513  00000+0  18150-3 0  9991", "line2": "2 40716  97.6760 210.1003 0005642 345.6248  14.4806 14.85427368561419"}}, "geometry": {"type": "Point", "coordinates": [-112.00464725596247, -77.45960282001319]}}, {"type": "Feature", "properties": {"norad_id": 40717, "name": "DMC3-FM3", "group": "dmc", "lat": 15.102946093768299, "lon": 34.38762700659657, "alt_km": 616.6358436293613, "timestamp": "2025-12-07T20:38:13.744131+00:00", "meta": {"OBJECT_NAME": "DMC3-FM3", "OBJECT_ID": "2015-032C", "EPOCH": "2025-12-07T05:20:52.664928", "MEAN_MOTION": 14.85418512, "ECCENTRICITY": 0.00050013, "INCLINATION": 97.6815, "RA_OF_ASC_NODE": 211.6856, "ARG_OF_PERICENTER": 347.9494, "MEAN_ANOMALY": 12.1601, "EPHEMERIS_TYPE": 0, "CLASSIFICATION_TYPE": "U", "NORAD_CAT_ID": 40717, "ELEMENT_SET_NO": 999, "REV_AT_EPOCH": 56141, "BSTAR": 0.00015302192, "MEAN_MOTION_DOT": 1.267e-05, "MEAN_MOTION_DDOT": 0}, "tle": {"line1": "1 40717U 15032C   25341.22283177  .00001267  00000+0  15302-3 0  9996", "line2": "2 40717  97.6815 211.6856 0005001 347.9494  12.1601 14.85418512561419"}}, "geometry": {"type": "Point", "coordinates": [34.38762700659657, 15.102946093768299]}}]}